     3.04           N: GNSS NAV DATA    M: MIXED            RINEX VERSION / TYPE
sbf2rin-15.6.1                          20231220 000901 UTC PGM / RUN BY / DATE 
GPSA   2.1420E-08  0.0000E+00 -5.9605E-08  1.1921E-07       IONOSPHERIC CORR    
GPSB   1.4336E+05 -2.1299E+05  0.0000E+00  2.6214E+05       IONOSPHERIC CORR    
GAL    1.4625E+02 -3.7891E-01 -1.2817E-03  0.0000E+00       IONOSPHERIC CORR    
                                                            COMMENT             
                                                            COMMENT             
                                                            COMMENT             
                                                            COMMENT             
VACS                                    MARKER NAME         COMMENT
39003M001                               MARKER NUMBER       COMMENT
  3215946.3300  5047448.4700 -2198719.6000                  COMMENT
This data is provided as a public service by NASA/JPL.      COMMENT
No warranty is expressed or implied regarding suitability   COMMENT
for use.  For further information, contact:                 COMMENT
ggnops at jpl dot nasa dot gov                              COMMENT
                                                            END OF HEADER       
C40 2023 12 19 08 00 00-4.844332579523E-05-1.396216475769E-12 0.000000000000E+00
     1.000000000000E+00 2.073437500000E+01 1.422202097569E-09-2.682382308630E+00
     7.390044629574E-07 3.321800613776E-03 7.514376193285E-06 6.493891052246E+03
     2.016000000000E+05 9.918585419655E-08-2.700744840269E+00 1.178123056889E-07
     9.841456142322E-01 1.837500000000E+01-3.020309007445E+00-2.351169364213E-09
    -6.525271803762E-10 0.000000000000E+00 9.370000000000E+02 0.000000000000E+00
     2.000000000000E+00 0.000000000000E+00 8.000000000000E-10 8.000000000000E-10
     2.016180000000E+05 1.000000000000E+00
C39 2023 12 19 08 00 00-6.158137694001E-06-3.108624468950E-14 0.000000000000E+00
     1.000000000000E+00-2.785937500000E+02 1.003256075357E-09-6.882366904950E-01
    -9.251292794943E-06 3.053002525121E-03 3.120023757219E-05 6.492881732941E+03
     2.016000000000E+05 1.294538378716E-07 1.422408408883E+00-5.494803190231E-08
     9.619561006014E-01-7.226875000000E+02-2.847841493058E+00-1.815432762919E-09
    -6.250260348431E-11 0.000000000000E+00 9.370000000000E+02 0.000000000000E+00
     2.000000000000E+00 0.000000000000E+00 6.100000000000E-09 6.100000000000E-09
     2.016180000000E+05 1.000000000000E+00
C05 2023 12 19 08 00 00 2.607002388686E-04-6.147349296270E-11 0.000000000000E+00
     1.000000000000E+00 5.280156250000E+02-9.339674749228E-10-1.714971140117E-01
     1.724204048514E-05 8.657219586894E-04 1.863576471806E-06 6.493409009933E+03
     2.016000000000E+05 6.984919309616E-09-8.061438090683E-01-2.887099981308E-08
     1.151931217302E-01-6.364062500000E+01-2.145846292094E+00 1.841505277515E-09
     1.435774091468E-10 0.000000000000E+00 9.370000000000E+02 0.000000000000E+00
     2.000000000000E+00 0.000000000000E+00 3.000000000000E-10-9.100000000000E-09
     2.016276000000E+05 0.000000000000E+00
C60 2023 12 19 08 00 00-1.965090632439E-07 8.970602038971E-14 0.000000000000E+00
     1.000000000000E+00 4.726250000000E+02-9.003946479083E-10 4.922384577190E-01
     1.551629975438E-05 3.300390671939E-04 1.159263774753E-05 6.493445352554E+03
     2.016000000000E+05 3.119930624962E-08-1.039393553748E+00 4.889443516731E-08
     1.244747766455E-01-3.655156250000E+02-2.205022197374E+00 1.644354208239E-09
    -6.428839215530E-12 0.000000000000E+00 9.370000000000E+02 0.000000000000E+00
     2.000000000000E+00 0.000000000000E+00 4.760000000000E-08 4.760000000000E-08
     2.016276000000E+05 1.000000000000E+00
C02 2023 12 19 08 00 00 2.649383386597E-04 3.341948939806E-11 0.000000000000E+00
     1.000000000000E+00 6.077812500000E+02-9.343246326570E-10-1.365658040796E+00
     1.973286271095E-05 8.233947446570E-04 1.013744622469E-06 6.493432209015E+03
     2.016000000000E+05 7.497146725655E-08-7.428942416242E-01-1.396983861923E-09
     1.130041354644E-01-4.165625000000E+01-5.727038221330E-01 1.684713032203E-09
     1.975082270104E-10 0.000000000000E+00 9.370000000000E+02 0.000000000000E+00
     2.000000000000E+00 0.000000000000E+00 8.000000000000E-10-1.370000000000E-08
     2.016276000000E+05 0.000000000000E+00
C03 2023 12 19 08 00 00-1.531944144517E-04 1.953992523340E-11 0.000000000000E+00
     1.000000000000E+00 6.314531250000E+02-1.451489031773E-09-1.139049658927E+00
     2.045417204499E-05 8.877877844498E-04 2.596527338028E-06 6.493367017746E+03
     2.016000000000E+05-4.796311259270E-08-8.593372805613E-01 1.201406121254E-07
     1.087979548658E-01-8.079687500000E+01-2.202391481531E-01 2.368670093188E-09
     1.635782422618E-10 0.000000000000E+00 9.370000000000E+02 0.000000000000E+00
     2.000000000000E+00 0.000000000000E+00 2.300000000000E-09-8.100000000000E-09
     2.016276000000E+05 0.000000000000E+00
C16 2023 12 19 08 00 00-2.341347280890E-04-2.024425072022E-11 0.000000000000E+00
     1.000000000000E+00-2.274375000000E+02 9.050376984529E-10-1.403776248275E+00
    -7.605645805597E-06 6.311415578239E-03 3.061583265662E-05 6.493893091202E+03
     2.016000000000E+05 1.965090632439E-07 1.493510034048E+00-9.452924132347E-08
     9.612802836509E-01-7.027968750000E+02-2.303397539719E+00-1.735429430459E-09
     2.107230631757E-11 0.000000000000E+00 9.370000000000E+02 0.000000000000E+00
     2.000000000000E+00 0.000000000000E+00-2.500000000000E-09 4.800000000000E-09
     2.023980000000E+05 0.000000000000E+00
C14 2023 12 19 08 00 00-2.172098029405E-04 7.880895935841E-11 0.000000000000E+00
     1.400000000000E+01-5.671875000000E+01 3.950878855677E-09 2.395732458205E+00
    -2.781394869089E-06 1.028594211675E-03 4.035886377096E-06 5.282628911972E+03
     2.016000000000E+05 2.793967723846E-09 1.372721060485E-01 7.543712854385E-08
     9.737093424453E-01 2.840312500000E+02-3.248742364988E-01-7.021006738827E-09
     5.035924052165E-11 0.000000000000E+00 9.370000000000E+02 0.000000000000E+00
     2.000000000000E+00 0.000000000000E+00 7.200000000000E-09 1.800000000000E-09
     2.025480000000E+05 0.000000000000E+00
C06 2023 12 19 08 00 00 2.159693976864E-04 1.975308805413E-11 0.000000000000E+00
     1.000000000000E+00-2.433437500000E+02 9.511110461642E-10-7.627970182662E-01
    -7.980968803167E-06 3.815022995695E-03 2.996670082211E-05 6.493279809952E+03
     2.016000000000E+05 1.392327249050E-07 1.498354602838E+00-6.007030606270E-08
     9.458523890857E-01-6.837187500000E+02-2.990495736162E+00-1.818647182526E-09
     1.857220217820E-11 0.000000000000E+00 9.370000000000E+02 0.000000000000E+00
     2.000000000000E+00 0.000000000000E+00 8.800000000000E-09-1.500000000000E-09
     2.025480000000E+05 0.000000000000E+00
C09 2023 12 19 08 00 00-2.371480222791E-04-5.019451521093E-11 0.000000000000E+00
     0.000000000000E+00-2.535468750000E+02 8.071764792831E-10-1.750344370537E+00
    -8.328817784786E-06 1.147776248399E-02 2.918299287558E-05 6.492939613342E+03
     2.016000000000E+05 1.029111444950E-07 1.543369317744E+00-1.448206603527E-07
     9.512154935777E-01-6.590468750000E+02-2.341513154907E+00-1.717928701483E-09
     9.786121916973E-11 0.000000000000E+00 9.370000000000E+02 0.000000000000E+00
     2.000000000000E+00 0.000000000000E+00 7.000000000000E-09 3.900000000000E-09
     2.042280000000E+05 0.000000000000E+00
C43 2023 12 19 08 00 00 5.290145054460E-05 1.558753126574E-12 0.000000000000E+00
     1.000000000000E+00-2.390625000000E+00 3.895519406877E-09-2.806213740718E+00
    -1.424923539162E-07 4.492686130106E-04 8.820556104183E-06 5.282620639801E+03
     2.016000000000E+05-3.306195139885E-08-1.985271295204E+00 1.396983861923E-08
     9.539324528299E-01 1.816875000000E+02 3.327497667406E-01-6.913145103099E-09
    -1.660783464012E-10 0.000000000000E+00 9.370000000000E+02 0.000000000000E+00
     2.000000000000E+00 0.000000000000E+00-3.300000000000E-09-3.300000000000E-09
     2.051280000000E+05 1.000000000000E+00
C12 2023 12 19 09 00 00 8.213529363275E-04-1.182431930147E-11 1.626303258728E-19
     2.000000000000E+01-1.212500000000E+01 3.206919295347E-09 7.740470967514E-01
    -5.546025931835E-07 1.408353098668E-03 9.910203516483E-06 5.282630601883E+03
     2.052000000000E+05 8.381903171539E-09-1.932494288693E+00-7.450580596924E-08
     9.835240130258E-01 1.692500000000E+02-1.615196690717E+00-6.648848379794E-09
    -2.603679882289E-10 0.000000000000E+00 9.370000000000E+02 0.000000000000E+00
     2.000000000000E+00 0.000000000000E+00 2.500000000000E-09 0.000000000000E+00
     2.052180000000E+05 6.000000000000E+00
C21 2023 12 19 09 00 00-9.669106220827E-04 2.112088282047E-12 0.000000000000E+00
     1.000000000000E+00-5.625000000000E+01 3.936949704043E-09-1.745897378994E+00
    -2.810265868902E-06 4.666870227084E-04 4.435889422894E-06 5.282622991562E+03
     2.052000000000E+05-3.119930624962E-08 1.402606209321E-01-1.490116119385E-08
     9.756165121723E-01 2.770000000000E+02-8.191573899476E-01-7.076366187627E-09
     1.785788670980E-12 0.000000000000E+00 9.370000000000E+02 0.000000000000E+00
     2.000000000000E+00 0.000000000000E+00 1.130000000000E-08 1.130000000000E-08
     2.052180000000E+05 1.000000000000E+00
C34 2023 12 19 09 00 00 3.281742101535E-04 8.333778112046E-12 0.000000000000E+00
     1.000000000000E+00-1.298437500000E+01 3.739441477033E-09-1.722754319267E+00
    -6.915070116520E-07 4.657281097025E-04 9.178183972836E-06 5.282626062393E+03
     2.052000000000E+05-1.443549990654E-08-1.984083530072E+00-7.776543498039E-08
     9.569647894246E-01 1.699218750000E+02 4.547520187269E-01-6.882786695693E-09
    -2.550106222160E-10 0.000000000000E+00 9.370000000000E+02 0.000000000000E+00
     2.000000000000E+00 0.000000000000E+00-6.100000000000E-09-6.100000000000E-09
     2.052180000000E+05 1.000000000000E+00
